NORAD_CAT_ID,OBJECT_NAME,OBJECT_TYPE,EPOCH,MEAN_MOTION,ECCENTRICITY,INCLINATION,RA_OF_ASC_NODE,ARG_OF_PERICENTER,MEAN_ANOMALY,BSTAR,MEAN_MOTION_DOT,MEAN_MOTION_DDOT,TLE_LINE0,TLE_LINE1,TLE_LINE2,SEMIMAJOR_AXIS,PERIOD,APOGEE,PERIGEE,DECAYED
54761.0,STARLINK-5202,PAYLOAD,2023-04-01 06:07:34,15.08837851,0.000259,53.2153,183.186,73.0333,287.0943,0.0011281,0.00017711,0.0,0 STARLINK-5202,1 54761U 22175D   23091.25526032  .00017711  00000-0  11281-2 0  9992,2 54761  53.2153 183.1860 0002590  73.0333 287.0943 15.08837851 15708,6917.887,95.438,541.544,537.96,0.0
54761.0,STARLINK-5202,PAYLOAD,2023-04-01 12:29:07,15.08817907,0.0001059,53.2153,181.995,61.1494,298.9604,0.0013454,0.00021176,0.0,0 STARLINK-5202,1 54761U 22175D   23091.52022402  .00021176  00000-0  13454-2 0  9998,2 54761  53.2153 181.9950 0001059  61.1494 298.9604 15.08817907 17908,6917.948,95.439,540.546,539.08,0.0
54761.0,STARLINK-5202,PAYLOAD,2023-04-01 15:39:53,15.0882363,0.0001061,53.215,181.4002,58.8189,301.2907,0.0021541,0.00034145,0.0,0 STARLINK-5202,1 54761U 22175D   23091.65270666  .00034145  00000-0  21541-2 0  9995,2 54761  53.2150 181.4002 0001061  58.8189 301.2907 15.08823630 15761,6917.93,95.439,540.529,539.061,0.0
54761.0,STARLINK-5202,PAYLOAD,2023-04-01 17:15:17,15.08830746,0.0001282,53.216,181.1043,52.2007,307.9101,0.0024374,0.00038707,0.0,0 STARLINK-5202,1 54761U 22175D   23091.71894774  .00038707  00000-0  24374-2 0  9999,2 54761  53.2160 181.1043 0001282  52.2007 307.9101 15.08830746 17932,6917.909,95.438,540.661,538.887,0.0
54761.0,STARLINK-5202,PAYLOAD,2023-04-02 12:19:54,15.08879007,0.0001349,53.2168,177.5355,57.3805,302.7317,0.0020971,0.00033281,0.0,0 STARLINK-5202,1 54761U 22175D   23092.51382026  .00033281  00000-0  20971-2 0  9991,2 54761  53.2168 177.5355 0001349  57.3805 302.7317 15.08879007 18050,6917.761,95.435,540.559,538.693,0.0
54761.0,STARLINK-5202,PAYLOAD,2023-04-02 17:06:02,15.08897672,0.0001378,53.217,176.6427,60.2478,299.8651,0.0023392,0.00037196,0.0,0 STARLINK-5202,1 54761U 22175D   23092.71253304  .00037196  00000-0  23392-2 0  9998,2 54761  53.2170 176.6427 0001378  60.2478 299.8651 15.08897672 15922,6917.704,95.434,540.522,538.616,0.0
54761.0,STARLINK-5202,PAYLOAD,2023-04-03 05:49:08,15.08845153,0.0001182,53.217,174.2638,72.1269,287.9852,0.00025022,3.697e-05,0.0,0 STARLINK-5202,1 54761U 22175D   23093.24245785  .00003697  00000-0  25022-3 0  9993,2 54761  53.2170 174.2638 0001182  72.1269 287.9852 15.08845153 16001,6917.865,95.437,540.547,538.912,0.0
54761.0,STARLINK-5202,PAYLOAD,2023-04-03 12:10:41,15.08830095,0.0001059,53.2162,173.0744,58.4398,301.6697,0.0011516,0.00018082,0.0,0 STARLINK-5202,1 54761U 22175D   23093.50742353  .00018082  00000-0  11516-2 0  9991,2 54761  53.2162 173.0744 0001059  58.4398 301.6697 15.08830095 16044,6917.911,95.438,540.508,539.043,0.0
54761.0,STARLINK-5202,PAYLOAD,2023-04-03 15:21:27,15.0883197,9.91e-05,53.2169,172.4804,82.0182,278.0922,0.00153,0.0002414,0.0,0 STARLINK-5202,1 54761U 22175D   23093.63990395  .00024140  00000-0  15300-2 0  9993,2 54761  53.2169 172.4804 0000991  82.0182 278.0922 15.08831970 18222,6917.905,95.438,540.455,539.084,0.0
54761.0,STARLINK-5202,PAYLOAD,2023-04-04 13:36:51,15.08874272,9.56e-05,53.2169,168.3173,77.6085,282.5014,0.0018564,0.00029408,0.0,0 STARLINK-5202,1 54761U 22175D   23094.56725779  .00029408  00000-0  18564-2 0  9995,2 54761  53.2169 168.3173 0000956  77.6085 282.5014 15.08874272 18367,6917.776,95.435,540.302,538.979,0.0
54761.0,STARLINK-5202,PAYLOAD,2023-04-05 05:30:42,15.08850448,0.0001079,53.2171,165.3437,99.2937,260.8177,0.00073026,0.00011357,0.0,0 STARLINK-5202,1 54761U 22175D   23095.22965814  .00011357  00000-0  73026-3 0  9994,2 54761  53.2171 165.3437 0001079  99.2937 260.8177 15.08850448 16303,6917.848,95.437,540.46,538.967,0.0
54761.0,STARLINK-5202,PAYLOAD,2023-04-05 11:52:14,15.08848173,0.0001073,53.2164,164.1541,88.8426,271.2689,0.00033548,5.057e-05,0.0,0 STARLINK-5202,1 54761U 22175D   23095.49461804  .00005057  00000-0  33548-3 0  9998,2 54761  53.2164 164.1541 0001073  88.8426 271.2689 15.08848173 18509,6917.855,95.437,540.463,538.978,0.0
54761.0,STARLINK-5202,PAYLOAD,2023-04-05 15:03:01,15.08853086,0.0001104,53.2163,163.5591,86.6574,273.4544,0.00055561,8.569e-05,0.0,0 STARLINK-5202,1 54761U 22175D   23095.62709695  .00008569  00000-0  55561-3 0  9996,2 54761  53.2163 163.5591 0001104  86.6574 273.4544 15.08853086 18526,6917.84,95.437,540.469,538.942,0.0
54761.0,STARLINK-5202,PAYLOAD,2023-04-05 21:24:33,15.088395,0.0001039,53.2162,162.3708,100.9349,259.1761,0.00026389,3.914e-05,0.0,0 STARLINK-5202,1 54761U 22175D   23095.89205884  .00003914  00000-0  26389-3 0  9991,2 54761  53.2162 162.3708 0001039 100.9349 259.1761 15.08839500 16401,6917.882,95.438,540.466,539.028,0.0
54761.0,STARLINK-5202,PAYLOAD,2023-04-06 13:18:25,15.08846681,0.0001216,53.2154,159.3964,85.1531,274.96,0.00058128,8.977e-05,0.0,0 STARLINK-5202,1 54761U 22175D   23096.55445952  .00008977  00000-0  58128-3 0  9997,2 54761  53.2154 159.3964 0001216  85.1531 274.9600 15.08846681 18661,6917.86,95.437,540.566,538.884,0.0
54761.0,STARLINK-5202,PAYLOAD,2023-04-06 21:15:21,15.08841323,0.0001324,53.2155,157.9086,81.7028,278.4114,0.00030197,4.521e-05,0.0,0 STARLINK-5202,1 54761U 22175D   23096.88566092  .00004521  00000-0  30197-3 0  9999,2 54761  53.2155 157.9086 0001324  81.7028 278.4114 15.08841323 18717,6917.876,95.437,540.657,538.825,0.0
54761.0,STARLINK-5202,PAYLOAD,2023-04-07 11:33:49,15.08844938,0.0001363,53.2154,155.2324,80.2047,279.9099,0.00024706,3.647e-05,0.0,0 STARLINK-5202,1 54761U 22175D   23097.48182081  .00003647  00000-0  24706-3 0  9995,2 54761  53.2154 155.2324 0001363  80.2047 279.9099 15.08844938 18803,6917.865,95.437,540.673,538.787,0.0
54761.0,STARLINK-5202,PAYLOAD,2023-04-08 03:27:40,15.08839423,0.0001165,53.2153,152.2582,87.298,272.8145,0.00010164,1.33e-05,0.0,0 STARLINK-5202,1 54761U 22175D   23098.14422147  .00001330  00000-0  10164-3 0  9999,2 54761  53.2153 152.2582 0001165  87.2980 272.8145 15.08839423 16746,6917.882,95.438,540.553,538.941,0.0
54761.0,STARLINK-5202,PAYLOAD,2023-04-08 09:49:13,15.08846715,0.0001322,53.2145,151.0701,79.7217,280.3924,0.00024984,3.691e-05,0.0,0 STARLINK-5202,1 54761U 22175D   23098.40917961  .00003691  00000-0  24984-3 0  9998,2 54761  53.2145 151.0701 0001322  79.7217 280.3924 15.08846715 18946,6917.86,95.437,540.639,538.81,0.0
54761.0,STARLINK-5202,PAYLOAD,2023-04-08 14:35:22,15.08852081,0.0001545,53.2151,150.1779,77.9107,282.2058,0.00035735,5.406e-05,0.0,0 STARLINK-5202,1 54761U 22175D   23098.60789801  .00005406  00000-0  35735-3 0  9992,2 54761  53.2151 150.1779 0001545  77.9107 282.2058 15.08852081 16819,6917.843,95.437,540.777,538.64,0.0
54761.0,STARLINK-5202,PAYLOAD,2023-04-08 20:56:55,15.08847553,0.0001909,53.2167,148.9904,56.4268,303.6906,0.00025782,3.818e-05,0.0,0 STARLINK-5202,1 54761U 22175D   23098.87285936  .00003818  00000-0  25782-3 0  9997,2 54761  53.2167 148.9904 0001909  56.4268 303.6906 15.08847553 16857,6917.857,95.437,541.043,538.402,0.0
54761.0,STARLINK-5202,PAYLOAD,2023-04-09 12:50:46,15.08845201,0.0001433,53.2153,146.0135,87.5865,272.5291,0.00011818,1.594e-05,0.0,0 STARLINK-5202,1 54761U 22175D   23099.53525850  .00001594  00000-0  11818-3 0  9997,2 54761  53.2153 146.0135 0001433  87.5865 272.5291 15.08845201 19118,6917.864,95.437,540.721,538.738,0.0
54761.0,STARLINK-5202,PAYLOAD,2023-04-09 14:26:09,15.08848158,0.0001402,53.2155,145.7168,84.2643,275.8509,0.00018002,2.579e-05,0.0,0 STARLINK-5202,1 54761U 22175D   23099.60149701  .00002579  00000-0  18002-3 0  9998,2 54761  53.2155 145.7168 0001402  84.2643 275.8509 15.08848158 19129,6917.855,95.437,540.69,538.751,0.0
54761.0,STARLINK-5202,PAYLOAD,2023-04-10 07:55:24,15.08837266,0.0001588,53.2162,142.4454,85.9804,274.137,4.2568e-05,3.89e-06,0.0,0 STARLINK-5202,1 54761U 22175D   23100.33014302  .00000389  00000-0  42568-4 0  9991,2 54761  53.2162 142.4454 0001588  85.9804 274.1370 15.08837266 17079,6917.889,95.438,540.852,538.655,0.0
54761.0,STARLINK-5202,PAYLOAD,2023-04-11 12:32:20,15.08851496,0.0001562,53.2163,137.0936,91.8127,268.3044,0.00026137,3.875e-05,0.0,0 STARLINK-5202,1 54761U 22175D   23101.52245624  .00003875  00000-0  26137-3 0  9992,2 54761  53.2163 137.0936 0001562  91.8127 268.3044 15.08851496 17255,6917.845,95.437,540.791,538.63,0.0
54761.0,STARLINK-5202,PAYLOAD,2023-04-12 02:50:49,15.08835592,0.000151,53.2157,134.4162,96.2976,263.8188,6.0892e-06,-1.91e-06,0.0,0 STARLINK-5202,1 54761U 22175D   23102.11862294 -.00000191  00000-0  60892-5 0  9993,2 54761  53.2157 134.4162 0001510  96.2976 263.8188 15.08835592 17342,6917.894,95.438,540.803,538.714,0.0
54761.0,STARLINK-5202,PAYLOAD,2023-04-12 12:23:08,15.0883311,0.0001491,53.216,132.6324,95.7917,264.3245,-4.6084e-05,-1.021e-05,0.0,0 STARLINK-5202,1 54761U 22175D   23102.51606524 -.00001021  00000-0 -46084-4 0  9999,2 54761  53.2160 132.6324 0001491  95.7917 264.3245 15.08833110 19563,6917.901,95.438,540.798,538.735,0.0
54761.0,STARLINK-5202,PAYLOAD,2023-04-13 10:38:31,15.08844056,0.0001407,53.2161,128.4698,90.0283,270.087,0.00019036,2.743e-05,0.0,0 STARLINK-5202,1 54761U 22175D   23103.44342381  .00002743  00000-0  19036-3 0  9996,2 54761  53.2161 128.4698 0001407  90.0283 270.0870 15.08844056 19707,6917.868,95.437,540.706,538.76,0.0
54761.0,STARLINK-5202,PAYLOAD,2023-04-13 18:35:27,15.08839254,0.0001452,53.2161,126.9828,90.8748,269.241,0.00012525,1.706e-05,0.0,0 STARLINK-5202,1 54761U 22175D   23103.77462671  .00001706  00000-0  12525-3 0  9991,2 54761  53.2161 126.9828 0001452  90.8748 269.2410 15.08839254 17598,6917.883,95.438,540.752,538.743,0.0
54761.0,STARLINK-5202,PAYLOAD,2023-04-14 08:53:57,15.08817543,0.0001348,53.2156,124.3065,89.7161,270.3985,-0.00014149,-2.538e-05,0.0,0 STARLINK-5202,1 54761U 22175D   23104.37080258 -.00002538  00000-0 -14149-3 0  9995,2 54761  53.2156 124.3065 0001348  89.7161 270.3985 15.08817543 17684,6917.949,95.439,540.747,538.881,0.0
